{
  "norad_id": 58910,
  "name": "GEESAT-2 06",
  "history": [
    {
      "epoch": "2026-03-28T21:46:24.075840Z",
      "apogee_km": 560.765925494512,
      "perigee_km": 552.2140048285346,
      "latitude_deg": 4.935598989381887e-05,
      "longitude_deg": 170.76498938389835,
      "height_km": 557.5753109397115,
      "semi_major_axis_km": 6934.626965161523,
      "eccentricity": 0.00061661,
      "inclination_deg": 49.9889,
      "raan_deg": 323.6862,
      "arg_perigee_deg": 97.3544,
      "mean_anomaly_deg": 262.8104,
      "mean_motion_rev_day": 15.03377707
    },
    {
      "epoch": "2026-03-29T02:33:32.620320Z",
      "apogee_km": 560.7565834558964,
      "perigee_km": 552.1992686371541,
      "latitude_deg": 2.4251660475338912e-05,
      "longitude_deg": 97.82972444947619,
      "height_km": 557.6144360681031,
      "semi_major_axis_km": 6934.6149260465245,
      "eccentricity": 0.000617,
      "inclination_deg": 49.9889,
      "raan_deg": 322.7331,
      "arg_perigee_deg": 98.0409,
      "mean_anomaly_deg": 262.1238,
      "mean_motion_rev_day": 15.03381622
    },
    {
      "epoch": "2026-03-30T04:04:57.462528Z",
      "apogee_km": 560.6912677076398,
      "perigee_km": 552.1423497722262,
      "latitude_deg": -7.484950040962423e-06,
      "longitude_deg": 68.8441737436922,
      "height_km": 557.8860489513088,
      "semi_major_axis_km": 6934.553808739933,
      "eccentricity": 0.0006164,
      "inclination_deg": 49.9888,
      "raan_deg": 317.6493,
      "arg_perigee_deg": 102.581,
      "mean_anomaly_deg": 257.5826,
      "mean_motion_rev_day": 15.03401497
    },
    {
      "epoch": "2026-03-30T05:40:40.227744Z",
      "apogee_km": 560.6821453962548,
      "perigee_km": 552.1452973851801,
      "latitude_deg": 3.8049333352681275e-05,
      "longitude_deg": 44.53281038233345,
      "height_km": 557.8983939247119,
      "semi_major_axis_km": 6934.550721390718,
      "eccentricity": 0.00061553,
      "inclination_deg": 49.9888,
      "raan_deg": 317.3316,
      "arg_perigee_deg": 102.8112,
      "mean_anomaly_deg": 257.3523,
      "mean_motion_rev_day": 15.03402501
    },
    {
      "epoch": "2026-03-30T15:14:56.711904Z",
      "apogee_km": 560.6583844961788,
      "perigee_km": 552.1244764285138,
      "latitude_deg": -1.454699192941296e-05,
      "longitude_deg": -101.33549415561303,
      "height_km": 558.0031601512599,
      "semi_major_axis_km": 6934.528430462346,
      "eccentricity": 0.00061532,
      "inclination_deg": 49.9888,
      "raan_deg": 315.4251,
      "arg_perigee_deg": 104.5704,
      "mean_anomaly_deg": 255.5925,
      "mean_motion_rev_day": 15.0340975
    },
    {
      "epoch": "2026-03-30T21:37:47.606016Z",
      "apogee_km": 560.6382660786958,
      "perigee_km": 552.1156097587154,
      "latitude_deg": -3.466528128789833e-05,
      "longitude_deg": 161.41958025059733,
      "height_km": 558.0518138315548,
      "semi_major_axis_km": 6934.513937918706,
      "eccentricity": 0.00061451,
      "inclination_deg": 49.9887,
      "raan_deg": 314.1543,
      "arg_perigee_deg": 105.4684,
      "mean_anomaly_deg": 254.6941,
      "mean_motion_rev_day": 15.03414463
    },
    {
      "epoch": "2026-03-31T21:33:27.916128Z",
      "apogee_km": 560.5805942938969,
      "perigee_km": 552.0844822156268,
      "latitude_deg": 1.736229198998257e-05,
      "longitude_deg": 156.75288380764655,
      "height_km": 558.2859083768212,
      "semi_major_axis_km": 6934.469538254762,
      "eccentricity": 0.0006126,
      "inclination_deg": 49.9883,
      "raan_deg": 309.3882,
      "arg_perigee_deg": 109.4538,
      "mean_anomaly_deg": 250.7071,
      "mean_motion_rev_day": 15.03428902
    },
    {
      "epoch": "2026-04-01T21:29:07.422720Z",
      "apogee_km": 560.53449153772,
      "perigee_km": 552.05645439627,
      "latitude_deg": 2.9750404032499858e-05,
      "longitude_deg": 152.08941131034942,
      "height_km": 558.5347600670583,
      "semi_major_axis_km": 6934.432472966994,
      "eccentricity": 0.0006113,
      "inclination_deg": 49.9879,
      "raan_deg": 304.622,
      "arg_perigee_deg": 113.6494,
      "mean_anomaly_deg": 246.5095,
      "mean_motion_rev_day": 15.03440956
    },
    {
      "epoch": "2026-04-02T19:49:03.515232Z",
      "apogee_km": 560.461404778529,
      "perigee_km": 552.0070193967513,
      "latitude_deg": 8.742569124839355e-06,
      "longitude_deg": 171.73962284494348,
      "height_km": 558.7341199750089,
      "semi_major_axis_km": 6934.37121208764,
      "eccentricity": 0.0006096,
      "inclination_deg": 49.9877,
      "raan_deg": 300.1731,
      "arg_perigee_deg": 117.6346,
      "mean_anomaly_deg": 242.522,
      "mean_motion_rev_day": 15.03460879
    },
    {
      "epoch": "2026-04-02T23:00:28.586880Z",
      "apogee_km": 560.4589049842662,
      "perigee_km": 551.9917711949665,
      "latitude_deg": 2.98745623563072e-06,
      "longitude_deg": 123.11863206289567,
      "height_km": 558.7610655029952,
      "semi_major_axis_km": 6934.362338089616,
      "eccentricity": 0.00061052,
      "inclination_deg": 49.9877,
      "raan_deg": 299.5376,
      "arg_perigee_deg": 118.1373,
      "mean_anomaly_deg": 242.0191,
      "mean_motion_rev_day": 15.03463765
    },
    {
      "epoch": "2026-04-03T19:44:41.064000Z",
      "apogee_km": 560.419428355478,
      "perigee_km": 551.9193555802049,
      "latitude_deg": -4.837985575562188e-05,
      "longitude_deg": 167.08377106300475,
      "height_km": 558.9523523375491,
      "semi_major_axis_km": 6934.306391967842,
      "eccentricity": 0.0006129,
      "inclination_deg": 49.9877,
      "raan_deg": 295.4064,
      "arg_perigee_deg": 121.8604,
      "mean_anomaly_deg": 238.2939,
      "mean_motion_rev_day": 15.0348196
    },
    {
      "epoch": "2026-04-04T19:40:17.440320Z",
      "apogee_km": 560.3726769978803,
      "perigee_km": 551.8712754930038,
      "latitude_deg": -4.2895541621523125e-06,
      "longitude_deg": 162.43300150376052,
      "height_km": 559.1557096092505,
      "semi_major_axis_km": 6934.258976245442,
      "eccentricity": 0.000613,
      "inclination_deg": 49.988,
      "raan_deg": 290.6398,
      "arg_perigee_deg": 125.9201,
      "mean_anomaly_deg": 234.2315,
      "mean_motion_rev_day": 15.03497381
    },
    {
      "epoch": "2026-04-05T13:13:03.486720Z",
      "apogee_km": 560.3138235434117,
      "perigee_km": 551.8571231837968,
      "latitude_deg": 3.463106149221801e-05,
      "longitude_deg": -104.97492086827717,
      "height_km": 559.2772901777005,
      "semi_major_axis_km": 6934.222473363604,
      "eccentricity": 0.00060978,
      "inclination_deg": 49.9881,
      "raan_deg": 287.1443,
      "arg_perigee_deg": 128.833,
      "mean_anomaly_deg": 231.3162,
      "mean_motion_rev_day": 15.03509253
    },
    {
      "epoch": "2026-04-05T19:35:52.875744Z",
      "apogee_km": 560.2943331257575,
      "perigee_km": 551.8595552840261,
      "latitude_deg": 1.230545977787308e-05,
      "longitude_deg": 157.78633928126058,
      "height_km": 559.3160928009557,
      "semi_major_axis_km": 6934.213944204891,
      "eccentricity": 0.0006082,
      "inclination_deg": 49.9882,
      "raan_deg": 285.8734,
      "arg_perigee_deg": 129.7821,
      "mean_anomaly_deg": 230.3662,
      "mean_motion_rev_day": 15.03512027
    },
    {
      "epoch": "2026-04-06T00:22:59.860704Z",
      "apogee_km": 560.2831716641658,
      "perigee_km": 551.849931988505,
      "latitude_deg": 3.142369244316907e-05,
      "longitude_deg": 84.85722667055373,
      "height_km": 559.3494757783709,
      "semi_major_axis_km": 6934.203551826335,
      "eccentricity": 0.00060809,
      "inclination_deg": 49.9882,
      "raan_deg": 284.9199,
      "arg_perigee_deg": 130.5677,
      "mean_anomaly_deg": 229.58,
      "mean_motion_rev_day": 15.03515407
    },
    {
      "epoch": "2026-04-07T14:39:54.927360Z",
      "apogee_km": 560.223494847739,
      "perigee_km": 551.8066823595509,
      "latitude_deg": 6.422733426847024e-05,
      "longitude_deg": -138.57087893004828,
      "height_km": 559.6371707597829,
      "semi_major_axis_km": 6934.152088603645,
      "eccentricity": 0.00060691,
      "inclination_deg": 49.9882,
      "raan_deg": 277.2934,
      "arg_perigee_deg": 137.0551,
      "mean_anomaly_deg": 223.0871,
      "mean_motion_rev_day": 15.03532145
    },
    {
      "epoch": "2026-04-07T21:02:43.950912Z",
      "apogee_km": 560.227289781511,
      "perigee_km": 551.7856635130411,
      "latitude_deg": -2.348355997657856e-05,
      "longitude_deg": 124.19175329811857,
      "height_km": 559.6999305389871,
      "semi_major_axis_km": 6934.143476647276,
      "eccentricity": 0.0006087,
      "inclination_deg": 49.9882,
      "raan_deg": 276.0224,
      "arg_perigee_deg": 138.3078,
      "mean_anomaly_deg": 221.8333,
      "mean_motion_rev_day": 15.03534946
    },
    {
      "epoch": "2026-04-08T14:35:28.569120Z",
      "apogee_km": 560.209969790295,
      "perigee_km": 551.757276750528,
      "latitude_deg": 2.210295778856287e-05,
      "longitude_deg": -143.20999749662352,
      "height_km": 559.8209680038649,
      "semi_major_axis_km": 6934.120623270412,
      "eccentricity": 0.0006095,
      "inclination_deg": 49.988,
      "raan_deg": 272.5271,
      "arg_perigee_deg": 141.2343,
      "mean_anomaly_deg": 218.9042,
      "mean_motion_rev_day": 15.03542379
    },
    {
      "epoch": "2026-04-09T20:53:50.288352Z",
      "apogee_km": 560.15491688357,
      "perigee_km": 551.7203085246765,
      "latitude_deg": 4.318728617266538e-05,
      "longitude_deg": 114.91719500824681,
      "height_km": 559.9877250643731,
      "semi_major_axis_km": 6934.074612704123,
      "eccentricity": 0.0006082,
      "inclination_deg": 49.988,
      "raan_deg": 266.4894,
      "arg_perigee_deg": 146.2704,
      "mean_anomaly_deg": 213.8631,
      "mean_motion_rev_day": 15.03557344
    }
  ]
}